[{"OBJECT_NAME":"STARLINK-35194","OBJECT_ID":"2025-211V","EPOCH":"2026-03-09T16:04:17.948352","MEAN_MOTION":15.0565103,"ECCENTRICITY":3.623e-5,"INCLINATION":97.6041,"RA_OF_ASC_NODE":114.1197,"ARG_OF_PERICENTER":163.8944,"MEAN_ANOMALY":196.2295,"EPHEMERIS_TYPE":0,"CLASSIFICATION_TYPE":"U","NORAD_CAT_ID":65671,"ELEMENT_SET_NO":999,"REV_AT_EPOCH":2704,"BSTAR":0.00037937304,"MEAN_MOTION_DOT":5.418e-5,"MEAN_MOTION_DDOT":0},{"OBJECT_NAME":"MINOTAUR 4 DEB","OBJECT_ID":"2020-046AB","EPOCH":"2026-03-09T21:53:22.840224","MEAN_MOTION":15.04149387,"ECCENTRICITY":0.00103054,"INCLINATION":53.9803,"RA_OF_ASC_NODE":316.6393,"ARG_OF_PERICENTER":80.1776,"MEAN_ANOMALY":280.0387,"EPHEMERIS_TYPE":0,"CLASSIFICATION_TYPE":"U","NORAD_CAT_ID":52037,"ELEMENT_SET_NO":999,"REV_AT_EPOCH":22693,"BSTAR":0.00012711185,"MEAN_MOTION_DOT":1.507e-5,"MEAN_MOTION_DDOT":0}]
